[{"OBJECT_NAME":"TIANPING 2C","OBJECT_ID":"2022-032D","EPOCH":"2026-03-09T22:24:23.522112","MEAN_MOTION":15.10225163,"ECCENTRICITY":0.00079422,"INCLINATION":97.5961,"RA_OF_ASC_NODE":122.1196,"ARG_OF_PERICENTER":128.8925,"MEAN_ANOMALY":231.3013,"EPHEMERIS_TYPE":0,"CLASSIFICATION_TYPE":"U","NORAD_CAT_ID":52156,"ELEMENT_SET_NO":999,"REV_AT_EPOCH":21586,"BSTAR":0.00036090623,"MEAN_MOTION_DOT":5.841e-5,"MEAN_MOTION_DDOT":0},{"OBJECT_NAME":"STARLINK-5244","OBJECT_ID":"2022-141AU","EPOCH":"2026-03-09T04:34:39.014976","MEAN_MOTION":15.08852187,"ECCENTRICITY":0.00013737,"INCLINATION":53.2193,"RA_OF_ASC_NODE":356.2817,"ARG_OF_PERICENTER":81.6267,"MEAN_ANOMALY":278.4881,"EPHEMERIS_TYPE":0,"CLASSIFICATION_TYPE":"U","NORAD_CAT_ID":54199,"ELEMENT_SET_NO":999,"REV_AT_EPOCH":18592,"BSTAR":1.5310492e-5,"MEAN_MOTION_DOT":-4.4e-7,"MEAN_MOTION_DDOT":0}]
